[{"OBJECT_NAME":"STARLINK-5367","OBJECT_ID":"2023-015BE","EPOCH":"2026-03-09T22:00:01.999584","MEAN_MOTION":15.08841276,"ECCENTRICITY":0.00017679,"INCLINATION":42.9996,"RA_OF_ASC_NODE":337.108,"ARG_OF_PERICENTER":269.051,"MEAN_ANOMALY":156.2561,"EPHEMERIS_TYPE":0,"CLASSIFICATION_TYPE":"U","NORAD_CAT_ID":55501,"ELEMENT_SET_NO":999,"REV_AT_EPOCH":578,"BSTAR":0.00075503686,"MEAN_MOTION_DOT":0.00011894,"MEAN_MOTION_DDOT":0},{"OBJECT_NAME":"DELTA 1 DEB","OBJECT_ID":"1972-058BG","EPOCH":"2026-03-09T20:01:49.581696","MEAN_MOTION":14.88535429,"ECCENTRICITY":0.00965988,"INCLINATION":98.8237,"RA_OF_ASC_NODE":167.9558,"ARG_OF_PERICENTER":346.289,"MEAN_ANOMALY":13.5703,"EPHEMERIS_TYPE":0,"CLASSIFICATION_TYPE":"U","NORAD_CAT_ID":7890,"ELEMENT_SET_NO":999,"REV_AT_EPOCH":62566,"BSTAR":0.0011014398,"MEAN_MOTION_DOT":0.00011112,"MEAN_MOTION_DDOT":0}]
